[{
    "Name": "Mitchell",
    "State": "ACT",
    "Postcode": "2911"
}, {
    "Name": "Bathurst",
    "State": "NSW",
    "Postcode": "2795"
}, {
    "Name": "Orange",
    "State": "NSW",
    "Postcode": "2800"
}, {
    "Name": "Forster",
    "State": "NSW",
    "Postcode": "2428"
}, {
    "Name": "Newcastle",
    "State": "NSW",
    "Postcode": "2300"
}, {
    "Name": "Nowra",
    "State": "NSW",
    "Postcode": "2540"
}, {
    "Name": "Wollongong",
    "State": "NSW",
    "Postcode": "2500"
}, {
    "Name": "Coffs Harbour",
    "State": "NSW",
    "Postcode": "2450"
}, {
    "Name": "Hay",
    "State": "NSW",
    "Postcode": "2711"
}, {
    "Name": "Tamworth",
    "State": "NSW",
    "Postcode": "2340"
}, {
    "Name": "Byron Bay",
    "State": "NSW",
    "Postcode": "2481"
}, {
    "Name": "Goulburn",
    "State": "NSW",
    "Postcode": "2580"
}, {
    "Name": "Bankstown",
    "State": "NSW",
    "Postcode": "2200"
}, {
    "Name": "Mount Druitt",
    "State": "NSW",
    "Postcode": "2770"
}, {
    "Name": "Camden",
    "State": "NSW",
    "Postcode": "2570"
}, {
    "Name": "Campbelltown",
    "State": "NSW",
    "Postcode": "2560"
}, {
    "Name": "Minto",
    "State": "NSW",
    "Postcode": "2566"
}, {
    "Name": "Manly",
    "State": "NSW",
    "Postcode": "2095"
}, {
    "Name": "North Sydney",
    "State": "NSW",
    "Postcode": "2055"
}, {
    "Name": "Penrith",
    "State": "NSW",
    "Postcode": "2750"
}, {
    "Name": "Homebush",
    "State": "NSW",
    "Postcode": "2140"
}, {
    "Name": "Sutherland",
    "State": "NSW",
    "Postcode": "2232"
}, {
    "Name": "Alexandria",
    "State": "NSW",
    "Postcode": "2015"
}, {
    "Name": "Waterloo",
    "State": "NSW",
    "Postcode": "2017"
}, {
    "Name": "Woolloomooloo",
    "State": "NSW",
    "Postcode": "2011"
}]